{
  "type": "FeatureCollection",
  "features": [
    {
      "type": "Feature",
      "properties": {
        "norad_id": 42988,
        "name": "SKYSAT-C10",
        "group": "resource",
        "lat": -49.937682047484884,
        "lon": 116.01479531779539,
        "alt_km": 480.66660506105836,
        "timestamp": "2025-12-02T06:27:52.678649+00:00",
        "meta_object_name": "SKYSAT-C10",
        "meta_object_id": "2017-068B",
        "meta_epoch": "2025-12-01T19:42:41.164128",
        "meta_mean_motion": 15.31937913,
        "meta_eccentricity": 0.0005454,
        "meta_inclination": 97.4249,
        "meta_ra_of_asc_node": 106.6446,
        "meta_arg_of_pericenter": 124.8,
        "meta_mean_anomaly": 235.3755,
        "meta_ephemeris_type": 0,
        "meta_classification_type": "U",
        "meta_norad_cat_id": 42988,
        "meta_element_set_no": 999,
        "meta_rev_at_epoch": 45212,
        "meta_bstar": 0.0003802,
        "meta_mean_motion_dot": 0.00011656,
        "meta_mean_motion_ddot": 0,
        "tle_line1": "1 42988U 17068B   25335.82130977  .00011656  00000+0  38020-3 0  9992",
        "tle_line2": "2 42988  97.4249 106.6446 0005454 124.8000 235.3755 15.31937913452124"
      },
      "geometry": {
        "type": "Point",
        "coordinates": [
          116.01479531779539,
          -49.937682047484884
        ]
      }
    },
    {
      "type": "Feature",
      "properties": {
        "norad_id": 42989,
        "name": "SKYSAT-C9",
        "group": "resource",
        "lat": 9.54907559911543,
        "lon": 105.18836676619189,
        "alt_km": 463.56377482338485,
        "timestamp": "2025-12-02T06:27:52.678660+00:00",
        "meta_object_name": "SKYSAT-C9",
        "meta_object_id": "2017-068C",
        "meta_epoch": "2025-12-01T19:28:31.586016",
        "meta_mean_motion": 15.3560928,
        "meta_eccentricity": 0.001063,
        "meta_inclination": 97.4179,
        "meta_ra_of_asc_node": 105.9832,
        "meta_arg_of_pericenter": 123.3184,
        "meta_mean_anomaly": 236.9079,
        "meta_ephemeris_type": 0,
        "meta_classification_type": "U",
        "meta_norad_cat_id": 42989,
        "meta_element_set_no": 999,
        "meta_rev_at_epoch": 45240,
        "meta_bstar": 0.00040968,
        "meta_mean_motion_dot": 0.00014136,
        "meta_mean_motion_ddot": 0,
        "tle_line1": "1 42989U 17068C   25335.81147669  .00014136  00000+0  40968-3 0  9998",
        "tle_line2": "2 42989  97.4179 105.9832 0010630 123.3184 236.9079 15.35609280452401"
      },
      "geometry": {
        "type": "Point",
        "coordinates": [
          105.18836676619189,
          9.54907559911543
        ]
      }
    },
    {
      "type": "Feature",
      "properties": {
        "norad_id": 42990,
        "name": "SKYSAT-C8",
        "group": "resource",
        "lat": 79.50933792739173,
        "lon": -28.98639474690869,
        "alt_km": 460.4345346901018,
        "timestamp": "2025-12-02T06:27:52.678670+00:00",
        "meta_object_name": "SKYSAT-C8",
        "meta_object_id": "2017-068D",
        "meta_epoch": "2025-12-01T19:04:19.524288",
        "meta_mean_motion": 15.3254173,
        "meta_eccentricity": 0.0002221,
        "meta_inclination": 97.4269,
        "meta_ra_of_asc_node": 105.7507,
        "meta_arg_of_pericenter": 24.7042,
        "meta_mean_anomaly": 335.4306,
        "meta_ephemeris_type": 0,
        "meta_classification_type": "U",
        "meta_norad_cat_id": 42990,
        "meta_element_set_no": 999,
        "meta_rev_at_epoch": 45203,
        "meta_bstar": 0.00038803,
        "meta_mean_motion_dot": 0.00012121,
        "meta_mean_motion_ddot": 0,
        "tle_line1": "1 42990U 17068D   25335.79467042  .00012121  00000+0  38803-3 0  9994",
        "tle_line2": "2 42990  97.4269 105.7507 0002221  24.7042 335.4306 15.32541730452033"
      },
      "geometry": {
        "type": "Point",
        "coordinates": [
          -28.98639474690869,
          79.50933792739173
        ]
      }
    },
    {
      "type": "Feature",
      "properties": {
        "norad_id": 42991,
        "name": "SKYSAT-C7",
        "group": "resource",
        "lat": -24.86014285326807,
        "lon": 110.74211225785281,
        "alt_km": 477.8847691912151,
        "timestamp": "2025-12-02T06:27:52.678679+00:00",
        "meta_object_name": "SKYSAT-C7",
        "meta_object_id": "2017-068E",
        "meta_epoch": "2025-12-01T19:36:01.768032",
        "meta_mean_motion": 15.31952389,
        "meta_eccentricity": 0.0007907,
        "meta_inclination": 97.4276,
        "meta_ra_of_asc_node": 106.8228,
        "meta_arg_of_pericenter": 91.1597,
        "meta_mean_anomaly": 269.0551,
        "meta_ephemeris_type": 0,
        "meta_classification_type": "U",
        "meta_norad_cat_id": 42991,
        "meta_element_set_no": 999,
        "meta_rev_at_epoch": 45210,
        "meta_bstar": 0.00037908,
        "meta_mean_motion_dot": 0.00011632,
        "meta_mean_motion_ddot": 0,
        "tle_line1": "1 42991U 17068E   25335.81668713  .00011632  00000+0  37908-3 0  9997",
        "tle_line2": "2 42991  97.4276 106.8228 0007907  91.1597 269.0551 15.31952389452100"
      },
      "geometry": {
        "type": "Point",
        "coordinates": [
          110.74211225785281,
          -24.86014285326807
        ]
      }
    },
    {
      "type": "Feature",
      "properties": {
        "norad_id": 42992,
        "name": "SKYSAT-C6",
        "group": "resource",
        "lat": 55.96080468983866,
        "lon": -61.13599361958392,
        "alt_km": 463.65568807922773,
        "timestamp": "2025-12-02T06:27:52.678690+00:00",
        "meta_object_name": "SKYSAT-C6",
        "meta_object_id": "2017-068F",
        "meta_epoch": "2025-12-01T07:58:11.317152",
        "meta_mean_motion": 15.31122388,
        "meta_eccentricity": 0.00051092,
        "meta_inclination": 97.431,
        "meta_ra_of_asc_node": 106.7844,
        "meta_arg_of_pericenter": 114.9451,
        "meta_mean_anomaly": 245.2322,
        "meta_ephemeris_type": 0,
        "meta_classification_type": "U",
        "meta_norad_cat_id": 42992,
        "meta_element_set_no": 999,
        "meta_rev_at_epoch": 45201,
        "meta_bstar": 0.00046159944,
        "meta_mean_motion_dot": 0.00013815,
        "meta_mean_motion_ddot": 0,
        "tle_line1": "1 42992U 17068F   25335.33207543  .00013815  00000+0  46160-3 0  9990",
        "tle_line2": "2 42992  97.4310 106.7844 0005109 114.9451 245.2322 15.31122388452018"
      },
      "geometry": {
        "type": "Point",
        "coordinates": [
          -61.13599361958392,
          55.96080468983866
        ]
      }
    },
    {
      "type": "Feature",
      "properties": {
        "norad_id": 43111,
        "name": "CARTOSAT-2F",
        "group": "resource",
        "lat": -35.42151881913989,
        "lon": 39.40323451151122,
        "alt_km": 514.6535525833524,
        "timestamp": "2025-12-02T06:27:52.678699+00:00",
        "meta_object_name": "CARTOSAT-2F",
        "meta_object_id": "2018-004A",
        "meta_epoch": "2025-12-01T21:08:16.196064",
        "meta_mean_motion": 15.19324266,
        "meta_eccentricity": 9.07e-05,
        "meta_inclination": 97.4331,
        "meta_ra_of_asc_node": 33.6929,
        "meta_arg_of_pericenter": 193.2914,
        "meta_mean_anomaly": 166.8297,
        "meta_ephemeris_type": 0,
        "meta_classification_type": "U",
        "meta_norad_cat_id": 43111,
        "meta_element_set_no": 999,
        "meta_rev_at_epoch": 43737,
        "meta_bstar": 6.1441e-05,
        "meta_mean_motion_dot": 1.23e-05,
        "meta_mean_motion_ddot": 0,
        "tle_line1": "1 43111U 18004A   25335.88074301  .00001230  00000+0  61441-4 0  9997",
        "tle_line2": "2 43111  97.4331  33.6929 0000907 193.2914 166.8297 15.19324266437378"
      },
      "geometry": {
        "type": "Point",
        "coordinates": [
          39.40323451151122,
          -35.42151881913989
        ]
      }
    },
    {
      "type": "Feature",
      "properties": {
        "norad_id": 43259,
        "name": "GAOFEN-1 02",
        "group": "resource",
        "lat": -77.48181011549714,
        "lon": 174.2614821602803,
        "alt_km": 647.0153322024562,
        "timestamp": "2025-12-02T06:27:52.678710+00:00",
        "meta_object_name": "GAOFEN-1 02",
        "meta_object_id": "2018-031A",
        "meta_epoch": "2025-12-01T21:09:21.892896",
        "meta_mean_motion": 14.76442173,
        "meta_eccentricity": 0.0001277,
        "meta_inclination": 98.0822,
        "meta_ra_of_asc_node": 33.6658,
        "meta_arg_of_pericenter": 267.5836,
        "meta_mean_anomaly": 92.5228,
        "meta_ephemeris_type": 0,
        "meta_classification_type": "U",
        "meta_norad_cat_id": 43259,
        "meta_element_set_no": 999,
        "meta_rev_at_epoch": 41358,
        "meta_bstar": 0.00015942,
        "meta_mean_motion_dot": 1.057e-05,
        "meta_mean_motion_ddot": 0,
        "tle_line1": "1 43259U 18031A   25335.88150339  .00001057  00000+0  15942-3 0  9997",
        "tle_line2": "2 43259  98.0822  33.6658 0001277 267.5836  92.5228 14.76442173413587"
      },
      "geometry": {
        "type": "Point",
        "coordinates": [
          174.2614821602803,
          -77.48181011549714
        ]
      }
    }
  ]
}